CAS500-2 RIDESHARE OBJE*
1 68985U 26100F   26129.83337963 -.00058950  00000+0 -59124-2 0  9998
2 68985  97.7396  27.9997 0000728 225.9452 101.7701 14.91665123  1307
