{
  "norad_id": 68985,
  "name": "CAS500-2 RIDESHARE OBJECT F",
  "history": [
    {
      "epoch": "2026-05-09T20:00:04.000032Z",
      "apogee_km": 593.2506567321761,
      "perigee_km": 592.2356965784538,
      "latitude_deg": -32.21266958434146,
      "longitude_deg": -134.7768625467503,
      "height_km": 605.0149507356214,
      "semi_major_axis_km": 6970.880176655314,
      "eccentricity": 7.28e-05,
      "inclination_deg": 97.7396,
      "raan_deg": 27.9997,
      "arg_perigee_deg": 225.9452,
      "mean_anomaly_deg": 101.7701,
      "mean_motion_rev_day": 14.91665123
    }
  ]
}